2024-172F               
1 61225U 24172F   24276.27566714  .26575769  21049-5  44129-3 0  9992
2 61225  97.9764   4.5708 0057187 199.9825 237.2571 16.40503145  1732
2024-172G               
1 61226U 24172G   24275.86891629  .00012485  00000+0  12638-2 0  9993
2 61226  98.0155   2.4941 0056670  14.7642 345.5214 14.89896900  1576
2024-173A               
1 61227U 24173A   24276.48593188  .00050870  00000+0  20591-2 0  9990
2 61227  97.4083 349.2072 0010734 239.4560 120.5619 15.24462879  1263
2024-173B               
1 61228U 24173B   24276.48469440  .00059694  00000+0  23934-2 0  9991
2 61228  97.4052 349.2064 0011841 243.5971 116.4051 15.24724806  1268
2024-173C               
1 61229U 24173C   24276.35366985  .00044500  00000+0  17956-2 0  9995
2 61229  97.4059 349.0765 0011247 244.7905 115.2167 15.24598849  1241
2024-173D               
1 61230U 24173D   24276.48461681  .00049329  00000+0  19833-2 0  9990
2 61230  97.4067 349.2075 0011264 244.7455 115.2616 15.24692766  1261
2024-173E               
1 61231U 24173E   24276.48543502  .00010536  00000+0  43331-3 0  9993
2 61231  97.3991 349.1991 0011716 243.5187 116.4849 15.24276268  1204
2024-173F               
1 61232U 24173F   24276.41854407  .00049250  00000+0  19755-2 0  9993
2 61232  97.4071 349.1436 0011378 246.6520 113.3521 15.24770595  1214
2024-173G               
1 61233U 24173G   24276.48328939  .00066603  00000+0  26436-2 0  9992
2 61233  97.4057 349.2083 0011490 248.6382 111.3630 15.25032200  1226
2024-173H               
1 61234U 24173H   24276.41741709  .00068930  00000+0  27276-2 0  9998
2 61234  97.4069 349.1449 0011523 249.1779 110.8225 15.25122472  1212
2024-173J               
1 61235U 24173J   24270.13270088  .00606797  00000+0  25405-1 0  9999
2 61235  97.4648 342.8508 0028308 324.3976  99.5552 15.20891751   231
2024-173K               
1 61236U 24173K   24276.47510250  .00060818  00000+0  23038-2 0  9990
2 61236  97.4424 349.2695 0020398 269.5933  90.2969 15.26485759  1285
2024-173L               
1 61237U 24173L   24275.83625056  .00041868  00000+0  10524-2 0  9991
2 61237  97.6794 349.0560 0087083 287.4814  71.6925 15.35950329  1227
2024-174A               
1 61238U 24174A   24276.41549420  .00015883  00000+0  81684-3 0  9992
2 61238  97.4563 281.5800 0013391 261.5877  98.3839 15.16456725  1130
2024-174B               
1 61239U 24174B   24276.41596851  .00019298  00000+0  99328-3 0  9991
2 61239  97.4554 281.5787 0013750 258.0620 101.9072 15.16380339  1127
2024-174C               
1 61240U 24174C   24276.41788495  .00014493  00000+0  75636-3 0  9998
2 61240  97.4506 281.5721 0013235 251.9848 107.9943 15.15962461  1096
2024-174D               
1 61241U 24174D   24276.41682530  .00019289  00000+0  99791-3 0  9998
2 61241  97.4527 281.5754 0013419 255.0727 104.9020 15.16204340  1090
2024-174E               
1 61242U 24174E   24276.41648691  .00015142  00000+0  78330-3 0  9999
2 61242  97.4571 281.5793 0014439 255.7281 104.2349 15.16249083  1087
2024-174F               
1 61263U 24174F   24276.42919898  .00217314  14230-4  15012-2 0  9990
2 61263  97.4339 282.0060 0180638   4.2430 356.0304 15.55529443  1119
2024-174G               
1 61443U 24174G   24276.42190869  .00446178  56141-4  28581-2 0  9993
2 61443  97.4321 282.0149 0170809   4.2933 355.9739 15.58708732   926
SHIJIAN-19 (SJ-19)      
1 61444U 24177A   24275.84906828  .00003517  00000+0  22248-4 0  9992
2 61444  41.6011 132.0774 0008270 329.1070  30.9290 15.78328504   845
CZ-2D R/B               
1 61445U 24177B   24276.29019331  .00253522  00000+0  12142-2 0  9990
2 61445  41.3912 129.1349 0020809 289.8263  70.0338 15.80899335   774
CREW DRAGON 9           
1 61447U 24178A   24275.85850748  .00025819  00000+0  45812-3 0  9996
2 61447  51.6362 147.0291 0007153  51.4028 308.7601 15.50026540474881
